{
  "type": "FeatureCollection",
  "features": [
    {
      "type": "Feature",
      "properties": {
        "norad_id": 34497,
        "name": "IRIDIUM 33 DEB",
        "group": "iridium-33-debris",
        "lat": -0.39129074964300314,
        "lon": -132.93554942599062,
        "alt_km": 829.4354810494406,
        "timestamp": "2025-12-25T07:00:34.433651+00:00",
        "meta_object_name": "IRIDIUM 33 DEB",
        "meta_object_id": "1997-051GN",
        "meta_epoch": "2025-12-22T21:33:03.136608",
        "meta_mean_motion": 14.27482363,
        "meta_eccentricity": 0.00780484,
        "meta_inclination": 86.2769,
        "meta_ra_of_asc_node": 48.0617,
        "meta_arg_of_pericenter": 306.2683,
        "meta_mean_anomaly": 179.2919,
        "meta_ephemeris_type": 0,
        "meta_classification_type": "U",
        "meta_norad_cat_id": 34497,
        "meta_element_set_no": 999,
        "meta_rev_at_epoch": 87028,
        "meta_bstar": 0.00056228088,
        "meta_mean_motion_dot": 1.443e-05,
        "meta_mean_motion_ddot": 0,
        "tle_line1": "1 34497U 97051GN  25356.89795297  .00001443  00000+0  56228-3 0  9993",
        "tle_line2": "2 34497  86.2769  48.0617 0078048 306.2683 179.2919 14.27482363870281"
      },
      "geometry": {
        "type": "Point",
        "coordinates": [
          -132.93554942599062,
          -0.39129074964300314
        ]
      }
    },
    {
      "type": "Feature",
      "properties": {
        "norad_id": 34508,
        "name": "IRIDIUM 33 DEB",
        "group": "iridium-33-debris",
        "lat": 64.42340750512955,
        "lon": -90.29963718786969,
        "alt_km": 711.7535904766883,
        "timestamp": "2025-12-25T07:00:34.433661+00:00",
        "meta_object_name": "IRIDIUM 33 DEB",
        "meta_object_id": "1997-051GZ",
        "meta_epoch": "2025-12-24T17:07:17.089536",
        "meta_mean_motion": 14.3851431,
        "meta_eccentricity": 0.00666407,
        "meta_inclination": 86.3702,
        "meta_ra_of_asc_node": 97.5672,
        "meta_arg_of_pericenter": 134.5991,
        "meta_mean_anomaly": 226.0672,
        "meta_ephemeris_type": 0,
        "meta_classification_type": "U",
        "meta_norad_cat_id": 34508,
        "meta_element_set_no": 999,
        "meta_rev_at_epoch": 87481,
        "meta_bstar": 0.0012177441,
        "meta_mean_motion_dot": 3.837e-05,
        "meta_mean_motion_ddot": 0,
        "tle_line1": "1 34508U 97051GZ  25358.71339224  .00003837  00000+0  12177-2 0  9996",
        "tle_line2": "2 34508  86.3702  97.5672 0066640 134.5991 226.0672 14.38514310874811"
      },
      "geometry": {
        "type": "Point",
        "coordinates": [
          -90.29963718786969,
          64.42340750512955
        ]
      }
    },
    {
      "type": "Feature",
      "properties": {
        "norad_id": 34521,
        "name": "IRIDIUM 33 DEB",
        "group": "iridium-33-debris",
        "lat": -21.314533273132774,
        "lon": 23.604496501022833,
        "alt_km": 689.5880052645207,
        "timestamp": "2025-12-25T07:00:34.433671+00:00",
        "meta_object_name": "IRIDIUM 33 DEB",
        "meta_object_id": "1997-051HN",
        "meta_epoch": "2025-12-24T19:37:11.782272",
        "meta_mean_motion": 14.63462765,
        "meta_eccentricity": 0.00031171,
        "meta_inclination": 86.3786,
        "meta_ra_of_asc_node": 25.2294,
        "meta_arg_of_pericenter": 167.2726,
        "meta_mean_anomaly": 192.8565,
        "meta_ephemeris_type": 0,
        "meta_classification_type": "U",
        "meta_norad_cat_id": 34521,
        "meta_element_set_no": 999,
        "meta_rev_at_epoch": 88649,
        "meta_bstar": 0.00083071408,
        "meta_mean_motion_dot": 4.322e-05,
        "meta_mean_motion_ddot": 0,
        "tle_line1": "1 34521U 97051HN  25358.81749748  .00004322  00000+0  83071-3 0  9990",
        "tle_line2": "2 34521  86.3786  25.2294 0003117 167.2726 192.8565 14.63462765886497"
      },
      "geometry": {
        "type": "Point",
        "coordinates": [
          23.604496501022833,
          -21.314533273132774
        ]
      }
    },
    {
      "type": "Feature",
      "properties": {
        "norad_id": 34525,
        "name": "IRIDIUM 33 DEB",
        "group": "iridium-33-debris",
        "lat": -47.09506451187878,
        "lon": 37.57080279811086,
        "alt_km": 757.4239470944249,
        "timestamp": "2025-12-25T07:00:34.433682+00:00",
        "meta_object_name": "IRIDIUM 33 DEB",
        "meta_object_id": "1997-051HS",
        "meta_epoch": "2025-12-24T15:10:06.285216",
        "meta_mean_motion": 14.42932485,
        "meta_eccentricity": 0.00062598,
        "meta_inclination": 86.3717,
        "meta_ra_of_asc_node": 41.7672,
        "meta_arg_of_pericenter": 67.6588,
        "meta_mean_anomaly": 58.8012,
        "meta_ephemeris_type": 0,
        "meta_classification_type": "U",
        "meta_norad_cat_id": 34525,
        "meta_element_set_no": 999,
        "meta_rev_at_epoch": 88259,
        "meta_bstar": 0.00032535718,
        "meta_mean_motion_dot": 1.107e-05,
        "meta_mean_motion_ddot": 0,
        "tle_line1": "1 34525U 97051HS  25358.63201719  .00001107  00000+0  32536-3 0  9993",
        "tle_line2": "2 34525  86.3717  41.7672 0006259  67.6588  58.8012 14.42932485882590"
      },
      "geometry": {
        "type": "Point",
        "coordinates": [
          37.57080279811086,
          -47.09506451187878
        ]
      }
    },
    {
      "type": "Feature",
      "properties": {
        "norad_id": 34529,
        "name": "IRIDIUM 33 DEB",
        "group": "iridium-33-debris",
        "lat": 75.580603492956,
        "lon": -164.26245997179674,
        "alt_km": 745.8717184329453,
        "timestamp": "2025-12-25T07:00:34.433693+00:00",
        "meta_object_name": "IRIDIUM 33 DEB",
        "meta_object_id": "1997-051HW",
        "meta_epoch": "2025-12-24T12:11:30.511392",
        "meta_mean_motion": 14.40625137,
        "meta_eccentricity": 0.00061125,
        "meta_inclination": 86.3629,
        "meta_ra_of_asc_node": 30.3944,
        "meta_arg_of_pericenter": 143.5438,
        "meta_mean_anomaly": 216.6179,
        "meta_ephemeris_type": 0,
        "meta_classification_type": "U",
        "meta_norad_cat_id": 34529,
        "meta_element_set_no": 999,
        "meta_rev_at_epoch": 88311,
        "meta_bstar": 0.00012093871,
        "meta_mean_motion_dot": 4.06e-06,
        "meta_mean_motion_ddot": 0,
        "tle_line1": "1 34529U 97051HW  25358.50799203  .00000406  00000+0  12094-3 0  9991",
        "tle_line2": "2 34529  86.3629  30.3944 0006112 143.5438 216.6179 14.40625137883116"
      },
      "geometry": {
        "type": "Point",
        "coordinates": [
          -164.26245997179674,
          75.580603492956
        ]
      }
    },
    {
      "type": "Feature",
      "properties": {
        "norad_id": 34538,
        "name": "IRIDIUM 33 DEB",
        "group": "iridium-33-debris",
        "lat": 34.35437438071957,
        "lon": 2.608183426375342,
        "alt_km": 755.1057705510193,
        "timestamp": "2025-12-25T07:00:34.433703+00:00",
        "meta_object_name": "IRIDIUM 33 DEB",
        "meta_object_id": "1997-051JF",
        "meta_epoch": "2025-12-24T17:48:32.243904",
        "meta_mean_motion": 14.42715706,
        "meta_eccentricity": 0.00319126,
        "meta_inclination": 86.2764,
        "meta_ra_of_asc_node": 0.2977,
        "meta_arg_of_pericenter": 286.3391,
        "meta_mean_anomaly": 132.9527,
        "meta_ephemeris_type": 0,
        "meta_classification_type": "U",
        "meta_norad_cat_id": 34538,
        "meta_element_set_no": 999,
        "meta_rev_at_epoch": 87929,
        "meta_bstar": 0.00092856968,
        "meta_mean_motion_dot": 3.127e-05,
        "meta_mean_motion_ddot": 0,
        "tle_line1": "1 34538U 97051JF  25358.74203986  .00003127  00000+0  92857-3 0  9993",
        "tle_line2": "2 34538  86.2764   0.2977 0031912 286.3391 132.9527 14.42715706879292"
      },
      "geometry": {
        "type": "Point",
        "coordinates": [
          2.608183426375342,
          34.35437438071957
        ]
      }
    },
    {
      "type": "Feature",
      "properties": {
        "norad_id": 34540,
        "name": "IRIDIUM 33 DEB",
        "group": "iridium-33-debris",
        "lat": 49.1952644436755,
        "lon": 117.58214658656314,
        "alt_km": 626.5116824199931,
        "timestamp": "2025-12-25T07:00:34.433714+00:00",
        "meta_object_name": "IRIDIUM 33 DEB",
        "meta_object_id": "1997-051JH",
        "meta_epoch": "2025-12-24T20:53:56.859072",
        "meta_mean_motion": 14.75561419,
        "meta_eccentricity": 0.00182412,
        "meta_inclination": 86.3113,
        "meta_ra_of_asc_node": 302.0602,
        "meta_arg_of_pericenter": 118.9915,
        "meta_mean_anomaly": 295.2293,
        "meta_ephemeris_type": 0,
        "meta_classification_type": "U",
        "meta_norad_cat_id": 34540,
        "meta_element_set_no": 999,
        "meta_rev_at_epoch": 89200,
        "meta_bstar": 0.0016633043,
        "meta_mean_motion_dot": 0.00011395,
        "meta_mean_motion_ddot": 0,
        "tle_line1": "1 34540U 97051JH  25358.87079698  .00011395  00000+0  16633-2 0  9994",
        "tle_line2": "2 34540  86.3113 302.0602 0018241 118.9915 295.2293 14.75561419892007"
      },
      "geometry": {
        "type": "Point",
        "coordinates": [
          117.58214658656314,
          49.1952644436755
        ]
      }
    }
  ]
}